IRIDIUM 106             
1 41917U 17003A   25043.59955534  .00000373  00000+0  12624-3 0  9992
2 41917  86.3962 293.1157 0002467  81.2832 278.8643 14.34221937423035
IRIDIUM 103             
1 41918U 17003B   25043.44734780  .00000477  00000+0  16309-3 0  9994
2 41918  86.3960 293.0803 0002365  99.5438 260.6025 14.34215824423033
IRIDIUM 109             
1 41919U 17003C   25043.73275652  .00000417  00000+0  14189-3 0  9993
2 41919  86.3961 293.0121 0001933  89.3003 270.8414 14.34217498423060
IRIDIUM 102             
1 41920U 17003D   25043.63127270  .00000469  00000+0  16031-3 0  9991
2 41920  86.3959 292.9887 0002080  82.5436 277.5996 14.34219323423119
IRIDIUM 105             
1 41921U 17003E   25043.60201203  .00000495  00000+0  16971-3 0  9990
2 41921  86.3927 261.4143 0002167  89.8123 270.3321 14.34219674424966
IRIDIUM 104             
1 41922U 17003F   25043.64395988  .00000051  00000+0  11319-4 0  9999
2 41922  86.3962 293.0187 0001806  98.9754 261.1646 14.34217703423109
IRIDIUM 114             
1 41923U 17003G   25043.44099759  .00000255  00000+0  83990-4 0  9995
2 41923  86.3961 293.0886 0002208  91.2337 268.9112 14.34217570423054
IRIDIUM 108             
1 41924U 17003H   25043.81812905  .00000255  00000+0  83815-4 0  9999
2 41924  86.3923 261.2330 0002270  83.0542 277.0912 14.34217167424984
